[{"OBJECT_NAME":"YAOGAN-40 03A","OBJECT_ID":"2025-199A","EPOCH":"2026-03-09T23:03:31.278816","MEAN_MOTION":14.26419606,"ECCENTRICITY":0.00148498,"INCLINATION":85.9829,"RA_OF_ASC_NODE":86.7514,"ARG_OF_PERICENTER":35.6299,"MEAN_ANOMALY":324.588,"EPHEMERIS_TYPE":0,"CLASSIFICATION_TYPE":"U","NORAD_CAT_ID":65544,"ELEMENT_SET_NO":999,"REV_AT_EPOCH":2627,"BSTAR":0.00017546994,"MEAN_MOTION_DOT":4.42e-6,"MEAN_MOTION_DDOT":0},{"OBJECT_NAME":"DMSP 5D-2 F13 DEB","OBJECT_ID":"1995-015AZ","EPOCH":"2026-03-09T01:20:33.473472","MEAN_MOTION":14.31077076,"ECCENTRICITY":0.00109868,"INCLINATION":98.6468,"RA_OF_ASC_NODE":95.3254,"ARG_OF_PERICENTER":254.7149,"MEAN_ANOMALY":105.282,"EPHEMERIS_TYPE":0,"CLASSIFICATION_TYPE":"U","NORAD_CAT_ID":40447,"ELEMENT_SET_NO":999,"REV_AT_EPOCH":57194,"BSTAR":0.00096942023,"MEAN_MOTION_DOT":2.512e-5,"MEAN_MOTION_DDOT":0}]
